{
  "type": "FeatureCollection",
  "features": [
    {
      "type": "Feature",
      "properties": {
        "norad_id": 39109,
        "name": "COSMOS 2251 DEB",
        "group": "cosmos-2251-debris",
        "lat": 70.54651688357596,
        "lon": -31.671788773075562,
        "alt_km": 690.2058344664401,
        "timestamp": "2025-12-24T09:46:31.403257+00:00",
        "meta_object_name": "COSMOS 2251 DEB",
        "meta_object_id": "1993-036BTY",
        "meta_epoch": "2025-12-20T22:20:27.128256",
        "meta_mean_motion": 14.70767113,
        "meta_eccentricity": 0.00595267,
        "meta_inclination": 74.0415,
        "meta_ra_of_asc_node": 209.1834,
        "meta_arg_of_pericenter": 310.8219,
        "meta_mean_anomaly": 110.7879,
        "meta_ephemeris_type": 0,
        "meta_classification_type": "U",
        "meta_norad_cat_id": 39109,
        "meta_element_set_no": 999,
        "meta_rev_at_epoch": 65294,
        "meta_bstar": 0.00038726181,
        "meta_mean_motion_dot": 2.395e-05,
        "meta_mean_motion_ddot": 0,
        "tle_line1": "1 39109U 93036BTY 25354.93086954  .00002395  00000+0  38726-3 0  9993",
        "tle_line2": "2 39109  74.0415 209.1834 0059526 310.8219 110.7879 14.70767113652949"
      },
      "geometry": {
        "type": "Point",
        "coordinates": [
          -31.671788773075562,
          70.54651688357596
        ]
      }
    },
    {
      "type": "Feature",
      "properties": {
        "norad_id": 39110,
        "name": "COSMOS 2251 DEB",
        "group": "cosmos-2251-debris",
        "lat": -10.574000995328744,
        "lon": 35.61891720299671,
        "alt_km": 645.7121408590856,
        "timestamp": "2025-12-24T09:46:31.403267+00:00",
        "meta_object_name": "COSMOS 2251 DEB",
        "meta_object_id": "1993-036BTZ",
        "meta_epoch": "2025-12-17T22:04:59.920608",
        "meta_mean_motion": 14.72312711,
        "meta_eccentricity": 0.00972569,
        "meta_inclination": 73.9594,
        "meta_ra_of_asc_node": 51.3772,
        "meta_arg_of_pericenter": 282.7235,
        "meta_mean_anomaly": 255.0933,
        "meta_ephemeris_type": 0,
        "meta_classification_type": "U",
        "meta_norad_cat_id": 39110,
        "meta_element_set_no": 999,
        "meta_rev_at_epoch": 62560,
        "meta_bstar": 0.00028872963,
        "meta_mean_motion_dot": 1.929e-05,
        "meta_mean_motion_ddot": 0,
        "tle_line1": "1 39110U 93036BTZ 25351.92013797  .00001929  00000+0  28873-3 0  9990",
        "tle_line2": "2 39110  73.9594  51.3772 0097256 282.7235 255.0933 14.72312711625601"
      },
      "geometry": {
        "type": "Point",
        "coordinates": [
          35.61891720299671,
          -10.574000995328744
        ]
      }
    },
    {
      "type": "Feature",
      "properties": {
        "norad_id": 39111,
        "name": "COSMOS 2251 DEB",
        "group": "cosmos-2251-debris",
        "lat": -69.94799509563339,
        "lon": -34.96197005982322,
        "alt_km": 519.6699946749595,
        "timestamp": "2025-12-24T09:46:31.403277+00:00",
        "meta_object_name": "COSMOS 2251 DEB",
        "meta_object_id": "1993-036BUA",
        "meta_epoch": "2025-12-01T22:58:55.551360",
        "meta_mean_motion": 15.11912111,
        "meta_eccentricity": 0.00109111,
        "meta_inclination": 74.0059,
        "meta_ra_of_asc_node": 63.5328,
        "meta_arg_of_pericenter": 39.1207,
        "meta_mean_anomaly": 321.0773,
        "meta_ephemeris_type": 0,
        "meta_classification_type": "U",
        "meta_norad_cat_id": 39111,
        "meta_element_set_no": 999,
        "meta_rev_at_epoch": 8982,
        "meta_bstar": 0.0056424119,
        "meta_mean_motion_dot": 0.00098096,
        "meta_mean_motion_ddot": 0,
        "tle_line1": "1 39111U 93036BUA 25335.95758740  .00098096  00000+0  56424-2 0  9993",
        "tle_line2": "2 39111  74.0059  63.5328 0010911  39.1207 321.0773 15.11912111 89826"
      },
      "geometry": {
        "type": "Point",
        "coordinates": [
          -34.96197005982322,
          -69.94799509563339
        ]
      }
    },
    {
      "type": "Feature",
      "properties": {
        "norad_id": 39546,
        "name": "COSMOS 2251 DEB",
        "group": "cosmos-2251-debris",
        "lat": 31.105676125213762,
        "lon": -76.65945413723954,
        "alt_km": 605.8418935050377,
        "timestamp": "2025-12-24T09:46:31.403298+00:00",
        "meta_object_name": "COSMOS 2251 DEB",
        "meta_object_id": "1993-036BUC",
        "meta_epoch": "2025-12-24T01:04:07.392000",
        "meta_mean_motion": 14.92354687,
        "meta_eccentricity": 0.0044177,
        "meta_inclination": 73.9983,
        "meta_ra_of_asc_node": 114.0416,
        "meta_arg_of_pericenter": 272.6339,
        "meta_mean_anomaly": 86.9787,
        "meta_ephemeris_type": 0,
        "meta_classification_type": "U",
        "meta_norad_cat_id": 39546,
        "meta_element_set_no": 999,
        "meta_rev_at_epoch": 64605,
        "meta_bstar": 0.0014193,
        "meta_mean_motion_dot": 0.00014787,
        "meta_mean_motion_ddot": 0,
        "tle_line1": "1 39546U 93036BUC 25358.04453000  .00014787  00000+0  14193-2 0  9993",
        "tle_line2": "2 39546  73.9983 114.0416 0044177 272.6339  86.9787 14.92354687646055"
      },
      "geometry": {
        "type": "Point",
        "coordinates": [
          -76.65945413723954,
          31.105676125213762
        ]
      }
    },
    {
      "type": "Feature",
      "properties": {
        "norad_id": 39547,
        "name": "COSMOS 2251 DEB",
        "group": "cosmos-2251-debris",
        "lat": -71.14971993331005,
        "lon": -128.33976993382237,
        "alt_km": 561.2339714500222,
        "timestamp": "2025-12-24T09:46:31.403311+00:00",
        "meta_object_name": "COSMOS 2251 DEB",
        "meta_object_id": "1993-036BUD",
        "meta_epoch": "2025-12-23T08:58:43.079808",
        "meta_mean_motion": 15.04053977,
        "meta_eccentricity": 0.00057754,
        "meta_inclination": 74.0016,
        "meta_ra_of_asc_node": 356.5965,
        "meta_arg_of_pericenter": 355.0071,
        "meta_mean_anomaly": 72.813,
        "meta_ephemeris_type": 0,
        "meta_classification_type": "U",
        "meta_norad_cat_id": 39547,
        "meta_element_set_no": 999,
        "meta_rev_at_epoch": 64185,
        "meta_bstar": 0.003298855,
        "meta_mean_motion_dot": 0.00045935,
        "meta_mean_motion_ddot": 0,
        "tle_line1": "1 39547U 93036BUD 25357.37410972  .00045935  00000+0  32989-2 0  9992",
        "tle_line2": "2 39547  74.0016 356.5965 0005775 355.0071  72.8130 15.04053977641858"
      },
      "geometry": {
        "type": "Point",
        "coordinates": [
          -128.33976993382237,
          -71.14971993331005
        ]
      }
    },
    {
      "type": "Feature",
      "properties": {
        "norad_id": 39553,
        "name": "COSMOS 2251 DEB",
        "group": "cosmos-2251-debris",
        "lat": 28.390680888105187,
        "lon": -41.28382336022688,
        "alt_km": 802.1599247516478,
        "timestamp": "2025-12-24T09:46:31.403322+00:00",
        "meta_object_name": "COSMOS 2251 DEB",
        "meta_object_id": "1993-036BUK",
        "meta_epoch": "2025-12-19T04:26:08.787552",
        "meta_mean_motion": 13.99893274,
        "meta_eccentricity": 0.02023146,
        "meta_inclination": 74.0301,
        "meta_ra_of_asc_node": 318.8543,
        "meta_arg_of_pericenter": 93.0274,
        "meta_mean_anomaly": 269.4029,
        "meta_ephemeris_type": 0,
        "meta_classification_type": "U",
        "meta_norad_cat_id": 39553,
        "meta_element_set_no": 999,
        "meta_rev_at_epoch": 75707,
        "meta_bstar": 0.00037697212,
        "meta_mean_motion_dot": 6.38e-06,
        "meta_mean_motion_ddot": 0,
        "tle_line1": "1 39553U 93036BUK 25353.18482393  .00000638  00000+0  37697-3 0  9993",
        "tle_line2": "2 39553  74.0301 318.8543 0202314  93.0274 269.4029 13.99893274757074"
      },
      "geometry": {
        "type": "Point",
        "coordinates": [
          -41.28382336022688,
          28.390680888105187
        ]
      }
    },
    {
      "type": "Feature",
      "properties": {
        "norad_id": 39554,
        "name": "COSMOS 2251 DEB",
        "group": "cosmos-2251-debris",
        "lat": 56.22622817799688,
        "lon": -94.164359072375,
        "alt_km": 521.1732091519243,
        "timestamp": "2025-12-24T09:46:31.403333+00:00",
        "meta_object_name": "COSMOS 2251 DEB",
        "meta_object_id": "1993-036BUL",
        "meta_epoch": "2025-12-10T06:12:03.924864",
        "meta_mean_motion": 15.10130993,
        "meta_eccentricity": 0.0002993,
        "meta_inclination": 74.0187,
        "meta_ra_of_asc_node": 269.7383,
        "meta_arg_of_pericenter": 74.7531,
        "meta_mean_anomaly": 81.5927,
        "meta_ephemeris_type": 0,
        "meta_classification_type": "U",
        "meta_norad_cat_id": 39554,
        "meta_element_set_no": 999,
        "meta_rev_at_epoch": 64347,
        "meta_bstar": 0.0046896,
        "meta_mean_motion_dot": 0.000773,
        "meta_mean_motion_ddot": 0,
        "tle_line1": "1 39554U 93036BUL 25344.25837876  .00077300  00000+0  46896-2 0  9992",
        "tle_line2": "2 39554  74.0187 269.7383 0002993  74.7531  81.5927 15.10130993643471"
      },
      "geometry": {
        "type": "Point",
        "coordinates": [
          -94.164359072375,
          56.22622817799688
        ]
      }
    }
  ]
}